IRIDIUM 63              
1 25286U 98021B   25342.16975604  .00000571  00000+0  18724-3 0  9994
2 25286  86.3986   9.1324 0002406  90.6135 269.5338 14.36730032448821
IRIDIUM 69              
1 25319U 98026A   25342.20197069  .00001032  00000+0  31388-3 0  9996
2 25319  86.3982  21.8572 0003628 133.0831 227.0673 14.41211270448120
IRIDIUM 71              
1 25320U 98026B   25342.18906350  .00000451  00000+0  13352-3 0  9991
2 25320  86.3980  16.5356 0001444 159.7969 200.3288 14.41313814448653
IRIDIUM 73              
1 25344U 98032C   25342.23043202  .00001290  00000+0  31461-3 0  9991
2 25344  86.4403 332.9060 0002854  97.1524 263.0006 14.51980861455818
IRIDIUM 82              
1 25467U 98051A   25342.18274656  .00048337  00000+0  91180-3 0  9998
2 25467  86.3606  23.4019 0061922 353.2136   6.8274 15.46135969450697
